{
  "links" : {
    "next" : "https://api.nasa.gov/neo/rest/v1/feed?start_date=2013-07-09&end_date=2013-07-09&detailed=true&api_key=t0TVs3DtDT2H8Oy2Zy8m2eVrNsAVKAexjcZXUckd",
    "prev" : "https://api.nasa.gov/neo/rest/v1/feed?start_date=2013-07-07&end_date=2013-07-07&detailed=true&api_key=t0TVs3DtDT2H8Oy2Zy8m2eVrNsAVKAexjcZXUckd",
    "self" : "https://api.nasa.gov/neo/rest/v1/feed?start_date=2013-07-08&end_date=2013-07-08&detailed=true&api_key=t0TVs3DtDT2H8Oy2Zy8m2eVrNsAVKAexjcZXUckd"
  },
  "element_count" : 9,
  "near_earth_objects" : {
    "2013-07-08" : [ {
      "links" : {
        "self" : "https://api.nasa.gov/neo/rest/v1/neo/2392704?api_key=t0TVs3DtDT2H8Oy2Zy8m2eVrNsAVKAexjcZXUckd"
      },
      "neo_reference_id" : "2392704",
      "name" : "392704 (2012 AE1)",
      "nasa_jpl_url" : "http://ssd.jpl.nasa.gov/sbdb.cgi?sstr=2392704",
      "absolute_magnitude_h" : 19.0,
      "estimated_diameter" : {
        "kilometers" : {
          "estimated_diameter_min" : 0.4212646106,
          "estimated_diameter_max" : 0.9419763057
        },
        "meters" : {
          "estimated_diameter_min" : 421.2646105562,
          "estimated_diameter_max" : 941.9763057186
        },
        "miles" : {
          "estimated_diameter_min" : 0.2617616123,
          "estimated_diameter_max" : 0.5853167591
        },
        "feet" : {
          "estimated_diameter_min" : 1382.1017848971,
          "estimated_diameter_max" : 3090.4735428537
        }
      },
      "is_potentially_hazardous_asteroid" : false,
      "close_approach_data" : [ {
        "close_approach_date" : "2013-07-08",
        "epoch_date_close_approach" : 1373266800000,
        "relative_velocity" : {
          "kilometers_per_second" : "21.0606677961",
          "kilometers_per_hour" : "75818.404065856",
          "miles_per_hour" : "47110.6077930314"
        },
        "miss_distance" : {
          "astronomical" : "0.3446016443",
          "lunar" : "134.0500335693",
          "kilometers" : "51551672",
          "miles" : "32032724"
        },
        "orbiting_body" : "Earth"
      } ],
      "orbital_data" : {
        "orbit_id" : "45",
        "orbit_determination_date" : "2017-04-06 09:21:59",
        "orbit_uncertainty" : "0",
        "minimum_orbit_intersection" : ".145075",
        "jupiter_tisserand_invariant" : "4.385",
        "epoch_osculation" : "2458000.5",
        "eccentricity" : ".4727131956536391",
        "semi_major_axis" : "1.507920908906379",
        "inclination" : "10.0526071786867",
        "ascending_node_longitude" : "16.84008777859977",
        "orbital_period" : "676.3418664725997",
        "perihelion_distance" : ".7951067972643047",
        "perihelion_argument" : "356.5116194296238",
        "aphelion_distance" : "2.220735020548454",
        "perihelion_time" : "2457884.163552977446",
        "mean_anomaly" : "61.92300522004751",
        "mean_motion" : ".5322751966805599",
        "equinox" : "J2000"
      }
    }, {
      "links" : {
        "self" : "https://api.nasa.gov/neo/rest/v1/neo/3329986?api_key=t0TVs3DtDT2H8Oy2Zy8m2eVrNsAVKAexjcZXUckd"
      },
      "neo_reference_id" : "3329986",
      "name" : "(2006 HB)",
      "nasa_jpl_url" : "http://ssd.jpl.nasa.gov/sbdb.cgi?sstr=3329986",
      "absolute_magnitude_h" : 18.8,
      "estimated_diameter" : {
        "kilometers" : {
          "estimated_diameter_min" : 0.4619074603,
          "estimated_diameter_max" : 1.0328564805
        },
        "meters" : {
          "estimated_diameter_min" : 461.9074602816,
          "estimated_diameter_max" : 1032.8564805039
        },
        "miles" : {
          "estimated_diameter_min" : 0.2870159005,
          "estimated_diameter_max" : 0.6417870641
        },
        "feet" : {
          "estimated_diameter_min" : 1515.4444719902,
          "estimated_diameter_max" : 3388.6368554964
        }
      },
      "is_potentially_hazardous_asteroid" : false,
      "close_approach_data" : [ {
        "close_approach_date" : "2013-07-08",
        "epoch_date_close_approach" : 1373266800000,
        "relative_velocity" : {
          "kilometers_per_second" : "5.5367963536",
          "kilometers_per_hour" : "19932.4668729371",
          "miles_per_hour" : "12385.2597633536"
        },
        "miss_distance" : {
          "astronomical" : "0.4622168442",
          "lunar" : "179.8023529053",
          "kilometers" : "69146656",
          "miles" : "42965740"
        },
        "orbiting_body" : "Earth"
      } ],
      "orbital_data" : {
        "orbit_id" : "39",
        "orbit_determination_date" : "2017-04-06 09:08:49",
        "orbit_uncertainty" : "0",
        "minimum_orbit_intersection" : ".206186",
        "jupiter_tisserand_invariant" : "3.441",
        "epoch_osculation" : "2458000.5",
        "eccentricity" : ".469712009994729",
        "semi_major_axis" : "2.290560739461144",
        "inclination" : "3.777837343449726",
        "ascending_node_longitude" : "167.81772531199",
        "orbital_period" : "1266.225763517649",
        "perihelion_distance" : "1.214656850513837",
        "perihelion_argument" : "131.0023676569572",
        "aphelion_distance" : "3.36646462840845",
        "perihelion_time" : "2457784.681643918792",
        "mean_anomaly" : "61.35920657102624",
        "mean_motion" : ".284309489170319",
        "equinox" : "J2000"
      }
    }, {
      "links" : {
        "self" : "https://api.nasa.gov/neo/rest/v1/neo/3624744?api_key=t0TVs3DtDT2H8Oy2Zy8m2eVrNsAVKAexjcZXUckd"
      },
      "neo_reference_id" : "3624744",
      "name" : "(2013 BF18)",
      "nasa_jpl_url" : "http://ssd.jpl.nasa.gov/sbdb.cgi?sstr=3624744",
      "absolute_magnitude_h" : 19.4,
      "estimated_diameter" : {
        "kilometers" : {
          "estimated_diameter_min" : 0.3503926411,
          "estimated_diameter_max" : 0.7835017643
        },
        "meters" : {
          "estimated_diameter_min" : 350.3926411083,
          "estimated_diameter_max" : 783.5017643338
        },
        "miles" : {
          "estimated_diameter_min" : 0.2177238258,
          "estimated_diameter_max" : 0.4868452748
        },
        "feet" : {
          "estimated_diameter_min" : 1149.5821926537,
          "estimated_diameter_max" : 2570.543928497
        }
      },
      "is_potentially_hazardous_asteroid" : false,
      "close_approach_data" : [ {
        "close_approach_date" : "2013-07-08",
        "epoch_date_close_approach" : 1373266800000,
        "relative_velocity" : {
          "kilometers_per_second" : "17.1552514819",
          "kilometers_per_hour" : "61758.9053348879",
          "miles_per_hour" : "38374.5820398919"
        },
        "miss_distance" : {
          "astronomical" : "0.2063529055",
          "lunar" : "80.2712783813",
          "kilometers" : "30869956",
          "miles" : "19181700"
        },
        "orbiting_body" : "Earth"
      } ],
      "orbital_data" : {
        "orbit_id" : "18",
        "orbit_determination_date" : "2017-07-02 06:21:16",
        "orbit_uncertainty" : "4",
        "minimum_orbit_intersection" : ".109818",
        "jupiter_tisserand_invariant" : "2.797",
        "epoch_osculation" : "2458000.5",
        "eccentricity" : ".7496923589228197",
        "semi_major_axis" : "2.812317137192438",
        "inclination" : "13.22178665051434",
        "ascending_node_longitude" : "102.1054707683915",
        "orbital_period" : "1722.641346306995",
        "perihelion_distance" : ".7039444685715681",
        "perihelion_argument" : "137.2461535330793",
        "aphelion_distance" : "4.920689805813309",
        "perihelion_time" : "2458176.113092481488",
        "mean_anomaly" : "323.3001301002855",
        "mean_motion" : ".2089813998553845",
        "equinox" : "J2000"
      }
    } ]
  }
}